[{"OBJECT_NAME":"SES-22","OBJECT_ID":"2022-071A","EPOCH":"2026-04-27T04:02:38.500224","MEAN_MOTION":1.00274145,"ECCENTRICITY":0.0001028,"INCLINATION":0.0203,"RA_OF_ASC_NODE":273.6155,"ARG_OF_PERICENTER":119.2051,"MEAN_ANOMALY":103.9973,"EPHEMERIS_TYPE":0,"CLASSIFICATION_TYPE":"U","NORAD_CAT_ID":52933,"ELEMENT_SET_NO":999,"REV_AT_EPOCH":701,"BSTAR":0,"MEAN_MOTION_DOT":9.4e-7,"MEAN_MOTION_DDOT":0},{"OBJECT_NAME":"WFOV (USA 332)","OBJECT_ID":"2022-073A","EPOCH":"2026-04-26T22:41:27.254112","MEAN_MOTION":1.00273133,"ECCENTRICITY":0.0002091,"INCLINATION":3.5816,"RA_OF_ASC_NODE":79.1598,"ARG_OF_PERICENTER":244.3227,"MEAN_ANOMALY":351.0838,"EPHEMERIS_TYPE":0,"CLASSIFICATION_TYPE":"U","NORAD_CAT_ID":52940,"ELEMENT_SET_NO":999,"REV_AT_EPOCH":1385,"BSTAR":0,"MEAN_MOTION_DOT":-3.7e-6,"MEAN_MOTION_DDOT":0},{"OBJECT_NAME":"TIANLIAN 2-03","OBJECT_ID":"2022-078A","EPOCH":"2026-04-27T05:12:38.610720","MEAN_MOTION":1.00272882,"ECCENTRICITY":0.0002485,"INCLINATION":0.5419,"RA_OF_ASC_NODE":75.5321,"ARG_OF_PERICENTER":286.7514,"MEAN_ANOMALY":301.6583,"EPHEMERIS_TYPE":0,"CLASSIFICATION_TYPE":"U","NORAD_CAT_ID":53100,"ELEMENT_SET_NO":999,"REV_AT_EPOCH":1403,"BSTAR":0,"MEAN_MOTION_DOT":6.2e-7,"MEAN_MOTION_DDOT":0},{"OBJECT_NAME":"SBIRS GEO-6 (USA 336)","OBJECT_ID":"2022-092A","EPOCH":"2026-04-26T22:47:04.214112","MEAN_MOTION":1.00271686,"ECCENTRICITY":0.0002109,"INCLINATION":3.3455,"RA_OF_ASC_NODE":316.6798,"ARG_OF_PERICENTER":68.3767,"MEAN_ANOMALY":310.6484,"EPHEMERIS_TYPE":0,"CLASSIFICATION_TYPE":"U","NORAD_CAT_ID":53355,"ELEMENT_SET_NO":999,"REV_AT_EPOCH":1372,"BSTAR":0,"MEAN_MOTION_DOT":-3.09e-6,"MEAN_MOTION_DDOT":0},{"OBJECT_NAME":"EUTELSAT KONNECT VHTS","OBJECT_ID":"2022-110A","EPOCH":"2026-04-27T02:53:38.770368","MEAN_MOTION":1.00271791,"ECCENTRICITY":0.0002916,"INCLINATION":0.0614,"RA_OF_ASC_NODE":92.5931,"ARG_OF_PERICENTER":274.1747,"MEAN_ANOMALY":254.4619,"EPHEMERIS_TYPE":0,"CLASSIFICATION_TYPE":"U","NORAD_CAT_ID":53765,"ELEMENT_SET_NO":999,"REV_AT_EPOCH":632,"BSTAR":0,"MEAN_MOTION_DOT":7.0e-8,"MEAN_MOTION_DDOT":0},{"OBJECT_NAME":"ZHONGXING-1E","OBJECT_ID":"2022-112A","EPOCH":"2026-04-27T00:13:18.444000","MEAN_MOTION":1.00272305,"ECCENTRICITY":0.0001544,"INCLINATION":0.0327,"RA_OF_ASC_NODE":348.1272,"ARG_OF_PERICENTER":341.4044,"MEAN_ANOMALY":330.1968,"EPHEMERIS_TYPE":0,"CLASSIFICATION_TYPE":"U","NORAD_CAT_ID":53813,"ELEMENT_SET_NO":999,"REV_AT_EPOCH":1333,"BSTAR":0,"MEAN_MOTION_DOT":-1.6e-6,"MEAN_MOTION_DDOT":0},{"OBJECT_NAME":"SES-20","OBJECT_ID":"2022-123A","EPOCH":"2026-04-27T00:16:38.720064","MEAN_MOTION":1.00269832,"ECCENTRICITY":0.0002023,"INCLINATION":0.0221,"RA_OF_ASC_NODE":101.307,"ARG_OF_PERICENTER":321.8701,"MEAN_ANOMALY":52.8977,"EPHEMERIS_TYPE":0,"CLASSIFICATION_TYPE":"U","NORAD_CAT_ID":53960,"ELEMENT_SET_NO":999,"REV_AT_EPOCH":1302,"BSTAR":0,"MEAN_MOTION_DOT":0,"MEAN_MOTION_DDOT":0},{"OBJECT_NAME":"SES-21","OBJECT_ID":"2022-123B","EPOCH":"2026-04-27T02:23:56.695200","MEAN_MOTION":1.00271477,"ECCENTRICITY":0.000137,"INCLINATION":0.022,"RA_OF_ASC_NODE":66.4488,"ARG_OF_PERICENTER":315.4887,"MEAN_ANOMALY":98.1693,"EPHEMERIS_TYPE":0,"CLASSIFICATION_TYPE":"U","NORAD_CAT_ID":53961,"ELEMENT_SET_NO":999,"REV_AT_EPOCH":670,"BSTAR":0,"MEAN_MOTION_DOT":5.9e-7,"MEAN_MOTION_DDOT":0},{"OBJECT_NAME":"GALAXY 33 (G-33)","OBJECT_ID":"2022-128A","EPOCH":"2026-04-27T03:54:38.810016","MEAN_MOTION":1.00273448,"ECCENTRICITY":0.0001807,"INCLINATION":0.0148,"RA_OF_ASC_NODE":278.1612,"ARG_OF_PERICENTER":104.2351,"MEAN_ANOMALY":118.4156,"EPHEMERIS_TYPE":0,"CLASSIFICATION_TYPE":"U","NORAD_CAT_ID":54026,"ELEMENT_SET_NO":999,"REV_AT_EPOCH":1323,"BSTAR":0,"MEAN_MOTION_DOT":6.8e-7,"MEAN_MOTION_DDOT":0},{"OBJECT_NAME":"GALAXY 34 (G-34)","OBJECT_ID":"2022-128B","EPOCH":"2026-04-27T04:48:35.037792","MEAN_MOTION":1.00272376,"ECCENTRICITY":0.0001553,"INCLINATION":0.0105,"RA_OF_ASC_NODE":235.372,"ARG_OF_PERICENTER":162.5627,"MEAN_ANOMALY":120.3992,"EPHEMERIS_TYPE":0,"CLASSIFICATION_TYPE":"U","NORAD_CAT_ID":54027,"ELEMENT_SET_NO":999,"REV_AT_EPOCH":1340,"BSTAR":0,"MEAN_MOTION_DOT":4.9e-7,"MEAN_MOTION_DDOT":0},{"OBJECT_NAME":"ANGOSAT 2","OBJECT_ID":"2022-131A","EPOCH":"2026-04-25T13:43:06.749760","MEAN_MOTION":1.00273024,"ECCENTRICITY":7.207e-5,"INCLINATION":0.0114,"RA_OF_ASC_NODE":193.0368,"ARG_OF_PERICENTER":280.1206,"MEAN_ANOMALY":329.1965,"EPHEMERIS_TYPE":0,"CLASSIFICATION_TYPE":"U","NORAD_CAT_ID":54033,"ELEMENT_SET_NO":999,"REV_AT_EPOCH":1294,"BSTAR":0,"MEAN_MOTION_DOT":1.21e-6,"MEAN_MOTION_DDOT":0},{"OBJECT_NAME":"EUTELSAT HOTBIRD 13F","OBJECT_ID":"2022-134A","EPOCH":"2026-04-27T05:12:38.610720","MEAN_MOTION":1.0027167,"ECCENTRICITY":0.0001995,"INCLINATION":0.0486,"RA_OF_ASC_NODE":287.6857,"ARG_OF_PERICENTER":70.4149,"MEAN_ANOMALY":308.2678,"EPHEMERIS_TYPE":0,"CLASSIFICATION_TYPE":"U","NORAD_CAT_ID":54048,"ELEMENT_SET_NO":999,"REV_AT_EPOCH":1286,"BSTAR":0,"MEAN_MOTION_DOT":7.7e-7,"MEAN_MOTION_DDOT":0},{"OBJECT_NAME":"LDPE-2","OBJECT_ID":"2022-144A","EPOCH":"2026-04-26T17:58:12.292896","MEAN_MOTION":1.00535042,"ECCENTRICITY":4.855e-5,"INCLINATION":5.5193,"RA_OF_ASC_NODE":63.8752,"ARG_OF_PERICENTER":20.9533,"MEAN_ANOMALY":195.0761,"EPHEMERIS_TYPE":0,"CLASSIFICATION_TYPE":"U","NORAD_CAT_ID":54219,"ELEMENT_SET_NO":999,"REV_AT_EPOCH":1132,"BSTAR":0,"MEAN_MOTION_DOT":-1.06e-6,"MEAN_MOTION_DDOT":0},{"OBJECT_NAME":"EUTELSAT HOTBIRD 13G","OBJECT_ID":"2022-146A","EPOCH":"2026-04-27T05:12:38.610720","MEAN_MOTION":1.00270945,"ECCENTRICITY":0.0002077,"INCLINATION":0.0379,"RA_OF_ASC_NODE":232.8647,"ARG_OF_PERICENTER":309.9333,"MEAN_ANOMALY":123.5676,"EPHEMERIS_TYPE":0,"CLASSIFICATION_TYPE":"U","NORAD_CAT_ID":54225,"ELEMENT_SET_NO":999,"REV_AT_EPOCH":695,"BSTAR":0,"MEAN_MOTION_DOT":7.7e-7,"MEAN_MOTION_DDOT":0},{"OBJECT_NAME":"ZHONGXING-19","OBJECT_ID":"2022-148A","EPOCH":"2026-04-27T02:42:38.699424","MEAN_MOTION":1.0027058,"ECCENTRICITY":0.000228,"INCLINATION":0.0079,"RA_OF_ASC_NODE":220.6528,"ARG_OF_PERICENTER":182.3814,"MEAN_ANOMALY":15.9285,"EPHEMERIS_TYPE":0,"CLASSIFICATION_TYPE":"U","NORAD_CAT_ID":54230,"ELEMENT_SET_NO":999,"REV_AT_EPOCH":1286,"BSTAR":0,"MEAN_MOTION_DOT":0,"MEAN_MOTION_DDOT":0},{"OBJECT_NAME":"GALAXY 31 (G-31)","OBJECT_ID":"2022-153A","EPOCH":"2026-04-27T03:46:38.623008","MEAN_MOTION":1.00273195,"ECCENTRICITY":0.0001376,"INCLINATION":0.0116,"RA_OF_ASC_NODE":240.8779,"ARG_OF_PERICENTER":155.607,"MEAN_ANOMALY":114.3178,"EPHEMERIS_TYPE":0,"CLASSIFICATION_TYPE":"U","NORAD_CAT_ID":54243,"ELEMENT_SET_NO":999,"REV_AT_EPOCH":662,"BSTAR":0,"MEAN_MOTION_DOT":3.0e-8,"MEAN_MOTION_DDOT":0},{"OBJECT_NAME":"GALAXY 32 (G-32)","OBJECT_ID":"2022-153B","EPOCH":"2026-04-27T04:37:14.044224","MEAN_MOTION":1.00271683,"ECCENTRICITY":0.0002902,"INCLINATION":0.0172,"RA_OF_ASC_NODE":282.7305,"ARG_OF_PERICENTER":101.2564,"MEAN_ANOMALY":169.502,"EPHEMERIS_TYPE":0,"CLASSIFICATION_TYPE":"U","NORAD_CAT_ID":54244,"ELEMENT_SET_NO":999,"REV_AT_EPOCH":1263,"BSTAR":0,"MEAN_MOTION_DOT":-1.84e-6,"MEAN_MOTION_DDOT":0},{"OBJECT_NAME":"EUTELSAT 10B","OBJECT_ID":"2022-157A","EPOCH":"2026-04-27T05:12:38.610720","MEAN_MOTION":1.00267948,"ECCENTRICITY":0.0001448,"INCLINATION":0.0604,"RA_OF_ASC_NODE":89.8609,"ARG_OF_PERICENTER":36.8125,"MEAN_ANOMALY":176.672,"EPHEMERIS_TYPE":0,"CLASSIFICATION_TYPE":"U","NORAD_CAT_ID":54259,"ELEMENT_SET_NO":999,"REV_AT_EPOCH":1251,"BSTAR":0,"MEAN_MOTION_DOT":5.8e-7,"MEAN_MOTION_DDOT":0},{"OBJECT_NAME":"GALAXY 35 (G-35)","OBJECT_ID":"2022-170A","EPOCH":"2026-04-27T04:52:41.283840","MEAN_MOTION":1.00271683,"ECCENTRICITY":0.0002027,"INCLINATION":0.0362,"RA_OF_ASC_NODE":93.4077,"ARG_OF_PERICENTER":302.4608,"MEAN_ANOMALY":159.3827,"EPHEMERIS_TYPE":0,"CLASSIFICATION_TYPE":"U","NORAD_CAT_ID":54741,"ELEMENT_SET_NO":999,"REV_AT_EPOCH":1238,"BSTAR":0,"MEAN_MOTION_DOT":-1.72e-6,"MEAN_MOTION_DDOT":0},{"OBJECT_NAME":"GALAXY 36 (G-36)","OBJECT_ID":"2022-170B","EPOCH":"2026-04-27T04:19:54.927840","MEAN_MOTION":1.00271482,"ECCENTRICITY":0.0002779,"INCLINATION":0.0122,"RA_OF_ASC_NODE":192.2325,"ARG_OF_PERICENTER":232.8703,"MEAN_ANOMALY":126.0467,"EPHEMERIS_TYPE":0,"CLASSIFICATION_TYPE":"U","NORAD_CAT_ID":54742,"ELEMENT_SET_NO":999,"REV_AT_EPOCH":1226,"BSTAR":0,"MEAN_MOTION_DOT":-1.95e-6,"MEAN_MOTION_DDOT":0},{"OBJECT_NAME":"METEOSAT-12 (MTG-I1)","OBJECT_ID":"2022-170C","EPOCH":"2026-04-27T05:20:38.796000","MEAN_MOTION":1.00269708,"ECCENTRICITY":0.0001108,"INCLINATION":0.7245,"RA_OF_ASC_NODE":22.4777,"ARG_OF_PERICENTER":335.3296,"MEAN_ANOMALY":297.2322,"EPHEMERIS_TYPE":0,"CLASSIFICATION_TYPE":"U","NORAD_CAT_ID":54743,"ELEMENT_SET_NO":999,"REV_AT_EPOCH":1246,"BSTAR":0,"MEAN_MOTION_DOT":-1.8e-7,"MEAN_MOTION_DDOT":0},{"OBJECT_NAME":"SHIJIAN-23 (SJ-23)","OBJECT_ID":"2023-002A","EPOCH":"2026-04-26T18:49:56.968896","MEAN_MOTION":1.00460649,"ECCENTRICITY":0.0006662,"INCLINATION":3.5875,"RA_OF_ASC_NODE":78.9404,"ARG_OF_PERICENTER":269.6601,"MEAN_ANOMALY":317.9126,"EPHEMERIS_TYPE":0,"CLASSIFICATION_TYPE":"U","NORAD_CAT_ID":55131,"ELEMENT_SET_NO":999,"REV_AT_EPOCH":1199,"BSTAR":0,"MEAN_MOTION_DOT":-2.0e-8,"MEAN_MOTION_DDOT":0},{"OBJECT_NAME":"APSTAR-6E","OBJECT_ID":"2023-005A","EPOCH":"2026-04-26T21:53:57.743232","MEAN_MOTION":1.00272681,"ECCENTRICITY":3.53e-5,"INCLINATION":0.0185,"RA_OF_ASC_NODE":236.2827,"ARG_OF_PERICENTER":151.6335,"MEAN_ANOMALY":289.4756,"EPHEMERIS_TYPE":0,"CLASSIFICATION_TYPE":"U","NORAD_CAT_ID":55239,"ELEMENT_SET_NO":999,"REV_AT_EPOCH":1817,"BSTAR":0,"MEAN_MOTION_DOT":-3.29e-6,"MEAN_MOTION_DDOT":0},{"OBJECT_NAME":"USA 342","OBJECT_ID":"2023-008A","EPOCH":"2026-04-26T17:06:12.675744","MEAN_MOTION":1.00270547,"ECCENTRICITY":1.43e-5,"INCLINATION":0.0132,"RA_OF_ASC_NODE":265.7116,"ARG_OF_PERICENTER":194.9593,"MEAN_ANOMALY":34.4066,"EPHEMERIS_TYPE":0,"CLASSIFICATION_TYPE":"U","NORAD_CAT_ID":55263,"ELEMENT_SET_NO":999,"REV_AT_EPOCH":1200,"BSTAR":0,"MEAN_MOTION_DOT":1.26e-6,"MEAN_MOTION_DDOT":0}]
